CIC_OEM_VERS = 2.0
CREATION_DATE = 2024-12-09T23:23:14.624900
ORIGINATOR = ISAE-SUPAERO


META_START
OBJECT_NAME = PLEIADES-NEO3
OBJECT_ID = PLEIADES-NEO3
CENTER_NAME = Earth
REF_FRAME = EME2000
TIME_SYSTEM = UTC
START_TIME = 2024-12-09T01:38:58.408
USEABLE_START_TIME = 2024-12-09T01:38:58.408
USEABLE_STOP_TIME = 2024-12-09T23:58:58.408
STOP_TIME = 2024-12-09T23:58:58.408
INTERPOLATION = lagrange
INTERPOLATION_DEGREE = 5
META_STOP



60653 5938.407999999999 3937.5995000000003 5790.1202 14.675402 0.84781187 -0.59627009 7.473357200000001
60653 6338.407999999999 3905.6276000000003 5028.5428 2910.7449 -1.0042782 -3.1509974 6.780993400000001
60653 6738.407999999999 3158.9759 3346.8436 5272.7895 -2.6704863 -5.1262951999999995 4.845936200000001
60653 7138.407999999999 1835.0209 1053.511 6668.9278 -3.8463971000000003 -6.162357 2.0268298000000002
60653 7538.408 176.10573000000002 -1432.1301 6844.7465 -4.3196319 -6.073230400000001 -1.1615244
60653 7938.408 -1514.8997 -3656.2304 5767.7137999999995 -4.0041519 -4.8744446 -4.1407075
60653 8338.408 -2929.3491000000004 -5212.5588 3633.6755000000003 -2.9543177999999997 -2.7800964 -6.365145000000001
60653 8738.408 -3806.4412 -5813.1236 832.9143 -1.3614842 -0.17314392 -7.4232839
60653 9138.408 -3985.1910000000003 -5347.1418 -2121.3997999999997 0.48182409000000004 2.4669926 -7.1175201
60653 9538.408 -3433.3089 -3900.8567000000003 -4685.7703 2.234166 4.651489400000001 -5.5054114
60653 9938.408 -2253.0927 -1740.5727 -6390.719400000001 3.5746003 5.9814634 -2.8876234
60653 10338.408 -661.39778 737.65396 -6925.594400000001 4.2604169 6.2175763 0.25432804
60653 10738.408 1050.9629 3081.2924 -6193.4685 4.1687012 5.3189113 3.3497966999999997
60653 11138.408 2571.3069 4862.1186 -4327.3892000000005 3.3148541000000002 3.4465482 5.8362061999999995
60653 11538.408 3621.1426 5753.1726 -1667.084 1.8522927 0.93930848 7.2560516
60653 11938.408 4007.3839 5590.0223 1299.0916000000002 0.04866770300000001 -1.7426026 7.3431866
60653 12338.408 3658.7862999999998 4401.7484 4026.6312000000003 -1.7624423 -4.1033527 6.0822603
60653 12738.408 2640.689 2407.9989 6015.4839 -3.247983 -5.7093267 3.7081331
60653 13138.408 1140.2178000000001 -25.63626 6902.7205 -4.137898600000001 -6.2701139 0.6597183700000001
60653 13538.408 -568.3201 -2454.6209 6527.2153 -4.2724268 -5.6865907 -2.5082933
60653 13938.408 -2173.0256 -4435.4141 4957.0885 -3.6264982 -4.0633525 -5.2210233
60653 14338.408 -3380.4155 -5605.2305 2478.0602999999996 -2.3152309 -1.6928112000000002 -6.980785200000001
60653 14738.408 -3968.25 -5747.8826 -455.92926 -0.5778595900000001 0.9910921600000001 -7.4600349
60653 15138.408 -3828.5224 -4836.809200000001 -3305.8208 1.2650310999999999 3.4929404 -6.5687066000000005
60653 15538.408 -2987.4614 -3039.5615000000003 -5549.0802 2.8735505 5.3518924 -4.4738803
60653 15938.408 -1600.3649 -686.71727 -6775.475200000001 3.954065 6.2296138 -1.563492
60653 16338.408 78.886855 1791.5475000000001 -6761.8199 4.312057 5.9696544000000005 1.6306954
60653 16738.408 1743.6701 3942.6852000000003 -5510.5217 3.8826802 4.6189295 4.5291759
60653 17138.408 3089.6651 5373.0217 -3249.134 2.7416826000000003 2.4199695 6.6020916
60653 17538.408 3869.4773 5818.843 -391.10019 1.0963204000000002 -0.22608002 7.4649599
60653 17938.408 3939.9281 5197.9434 2538.8652 -0.75031657 -2.8310252 6.955402100000001
60653 18338.408 3287.6097999999997 3623.387 5002.3465 -2.4570629 -4.9144291 5.1709824
60653 18738.408 2034.4426 1386.6916 6548.8494 -3.71106 -6.0950261 2.4421561
60653 19138.408 409.81279 -1103.2567 6896.6963 -4.2861493 -6.1617765 -0.72959103
60653 19538.408 -1289.5729 -3391.8827 5982.932900000001 -4.0790708 -5.1038571 -3.7687122
60653 19938.408 -2753.3286000000003 -5060.8665 3973.6307 -3.125874 -3.1109898 -6.1222446
60653 20338.408 -3712.9594 -5803.129599999999 1234.5303000000001 -1.5982428 -0.54421939 -7.3566794
60653 20738.408 -3992.2464 -5482.1587 -1730.9069 0.22378513000000003 2.1244072000000003 -7.238916100000001
60653 21138.408 -3539.5237 -4155.9281 -4378.322 2.0029728 4.4013482999999995 -5.7924717
60653 21538.408 -2439.175 -2069.2422 -6222.6697 3.4125506999999997 5.8691489 -3.286685
60653 21938.408 -893.31698 395.42684 -6927.5962 4.1967921 6.2631132 -0.18371735
60653 22338.408 815.52696 2787.9549 -6365.183 4.2150303000000005 5.5140813 2.9524126
60653 22738.408 2375.364 4671.3146 -4637.5317000000005 3.4629789 3.7561577 5.552250600000001
60653 23138.408 3500.6537000000003 5700.0133 -2058.8572 2.075265 1.3067864999999999 7.1381192
60653 23538.408 3984.3498 5684.1647 897.5876999999999 0.30534866 -1.3851163 7.4133505
60653 23938.408 3737.6016 4626.3364 3688.6677000000004 -1.5193752 -3.8215887 6.3268763
60653 24338.408 2806.3599 2721.0641 5803.1973 -3.0631601 -5.555057700000001 4.082123
60653 24738.408 1362.3682 318.60878 6854.662700000001 -4.0446235999999995 -6.270790600000001 1.0941606
60653 25138.408 -330.27931 -2142.0349 6651.9088 -4.2874722 -5.8417443 -2.09229
60653 25538.408 -1962.5783999999999 -4211.5424 5231.6862 -3.7473287 -4.3449558 -4.899124700000001
60653 25938.408 -3236.0827000000004 -5511.0288 2852.356 -2.5199962 -2.049612 -6.8123401999999995
60653 26338.408 -3916.5422000000003 -5800.6089 -50.718512000000004 -0.82898074 0.62474951 -7.4763703
60653 26738.408 -3878.9802000000004 -5026.7482 -2944.4073 1.0139489 3.1844571 -6.766345
60653 27138.408 -3130.3327999999997 -3331.2723 -5297.3904 2.6687056 5.1578394 -4.8162306
60653 27538.408 -1809.5445 -1026.9731 -6679.4487 3.8324058 6.1845698 -1.9874353000000002
60653 27938.408 -158.3844 1464.8682 -6839.0015 4.2954170000000005 6.0815578 1.2018884
60653 28338.408 1521.6296000000002 3689.3133 -5747.1350999999995 3.9743763 4.8680069999999995 4.1731793
60653 28738.408 2923.4885 5239.4585 -3602.331 2.9256227 2.7614897000000003 6.3846599
60653 29138.408 3789.7362000000003 5829.697099999999 -795.8910500000001 1.3387198 0.14478415 7.4275443999999995
60653 29538.408 3961.2951000000003 5351.3213 2156.6897000000004 -0.4945433 -2.4997632 7.1046793
60653 29938.408 3406.4664 3891.5981 4712.9295999999995 -2.2348585 -4.6831949999999996 5.478161600000001
60653 30338.408 2228.4348999999997 1719.8738 6404.8189 -3.5631880000000002 -6.0061024 2.850601
60653 30738.408 643.39884 -766.01453 6924.0208 -4.239057300000001 -6.2306419 -0.2944778
60653 31138.408 -1059.0503 -3112.1058 6176.4121 -4.1412531 -5.3178962 -3.3858683000000003
60653 31538.408 -2568.0026000000003 -4889.6729000000005 4297.8428 -3.2862053 -3.4314992 -5.8615968
60653 31938.408 -3606.9397000000004 -5772.1862 1630.2601000000002 -1.8275698 -0.91282376 -7.2660899
60653 32338.408 -3984.8478 -5596.9489 -1336.4155 -0.032385649 1.7756063 -7.335686
60653 32738.408 -3632.3131000000003 -4395.7367 -4057.513 1.7670029999999999 4.1362326000000005 -6.0582603
60653 33138.408 -2614.9499 -2389.8949 -6034.3025 3.239988 5.7362229 -3.6727121000000005
60653 33538.408 -1119.9646 52.489014000000005 -6906.160900000001 4.1189046 6.286314000000001 -0.6194465699999999
60653 33938.408 579.34509 2485.3127000000004 -6514.797500000001 4.2460192 5.6893089 2.5461152
60653 34338.408 2172.8138 4464.3692 -4931.156900000001 3.5975992999999997 4.052057899999999 5.249764
60653 34738.408 3369.0807999999997 5627.2119 -2443.3118 2.2890938999999997 1.6693953 6.9951541
60653 35138.408 3947.8617999999997 5758.8072999999995 492.98538 0.55927998 -1.022399 7.4572865
60653 35538.408 3802.8248 4834.5998 3338.4415 -1.2727163000000001 -3.5263682 6.549348200000001
60653 35938.408 2961.1474 3024.6183 5571.1975999999995 -2.8689503 -5.3812014 4.441567500000001
60653 36338.408 1578.2305000000001 661.7793 6783.0386 -3.9381033000000003 -6.2495112 1.5241571
60653 36738.408 -92.831222 -1821.922 6753.416 -4.2877035999999995 -5.9765028000000004 -1.669981
60653 37138.408 -1746.9072 -3972.9153 5487.6116 -3.8543123 -4.611357699999999 -4.56129
60653 37538.408 -3081.6145 -5397.5296 3215.8119 -2.7143923 -2.3992626 -6.6210549
60653 37938.408 -3851.5823 -5833.066400000001 353.51076 -1.0751079 0.25609556 -7.467113
60653 38338.408 -3915.4547000000002 -5199.2248 -2573.8395 0.76149593 2.8647232 -6.9403485
60653 38738.408 -3260.9320000000002 -3611.2958 -5028.3415 2.4561868 4.9456415 -5.1416583000000005
60653 39138.408 -2010.5372 -1363.606 -6561.0905999999995 3.6982835 6.1179201999999995 -2.4037789
60653 39538.408 -393.05361 1133.1026000000002 -6892.959400000001 4.2637467 6.1721763 0.76983217
60653 39938.408 1296.1163000000001 3423.0558 -5963.9773 4.0512046999999995 5.1000152 3.8033922
60653 40338.408 2748.4805 5087.7285 -3942.9806000000003 3.0976708 3.0936065 6.1451439
60653 40738.408 3697.5729 5820.7023 -1197.7491000000002 1.5748636 0.51635818 7.3637872
60653 41138.408 3969.1966 5487.3006 1767.0597 -0.23815731 -2.1577635 7.2286465
60653 41538.408 3513.2687 4148.054 4407.1170999999995 -2.0054542 -4.433656699999999 5.766545900000001
60653 41938.408 2414.4197000000004 2049.6351 6238.8235 -3.4028332999999997 -5.8947892 3.2503843000000003
60653 42338.408 874.58508 -423.18424 6928.2115 -4.176886400000001 -6.2776074 0.14347523
60653 42738.408 -824.85015 -2818.7868 6350.072700000001 -4.188602700000001 -5.5146769 -2.9896308
60653 43138.408 -2373.5679 -4699.4855 4609.2635 -3.4346424000000004 -3.7424352 -5.5797828
60653 43538.408 -3487.7253 -5719.6418 2021.794 -2.0498721 -1.2806171 -7.1516387
60653 43938.408 -3962.5370000000003 -5691.512900000001 -936.51983 -0.28709278 1.4192713000000001 -7.4090434
60653 44338.408 -3710.7119 -4619.6522 -3722.8801000000003 1.5269907 3.8569113 -6.304296900000001
60653 44738.408 -2778.0948 -2700.0325000000003 -5825.313 3.0589673 5.585445 -4.0456085
60653 45138.408 -1338.2323999999999 -287.65793 -6860.4083 4.0283973 6.2891235 -1.0502044000000001
60653 45538.408 345.9225 2177.2677000000003 -6640.0646 4.2618846 5.84453 2.1347465000000003
60653 45938.408 1966.8935000000001 4244.7216 -5204.6059000000005 3.717198 4.332154900000001 4.9316035000000005
60653 46338.408 3228.2835 5536.2455 -2815.4072 2.4912967 2.0242766 6.828946
